{"type": "FeatureCollection", "features": [ {"type": "Feature", "properties": {"norad_id": 66455, "name": "ATLAS 5 CENTAUR R/B", "group": "last-30-days", "lat": 5.21923015813879, "lon": 54.031121091918315, "alt_km": 14518.726235160746, "timestamp": "2025-12-10T07:43:53.548154+00:00", "meta": {"OBJECT_NAME": "ATLAS 5 CENTAUR R/B", "OBJECT_ID": "2025-261B", "EPOCH": "2025-12-09T12:36:12.496896", "MEAN_MOTION": 2.28259633, "ECCENTRICITY": 0.23295155, "INCLINATION": 6.1498, "RA_OF_ASC_NODE": 291.938, "ARG_OF_PERICENTER": 185.838, "MEAN_ANOMALY": 23.1887, "EPHEMERIS_TYPE": 0, "CLASSIFICATION_TYPE": "U", "NORAD_CAT_ID": 66455, "ELEMENT_SET_NO": 999, "REV_AT_EPOCH": 57, "BSTAR": 0, "MEAN_MOTION_DOT": -8e-07, "MEAN_MOTION_DDOT": 0}, "tle": {"line1": "1 66455U 25261B   25343.52514464 -.00000080  00000+0  00000+0 0  9997", "line2": "2 66455   6.1498 291.9380 2329515 185.8380  23.1887  2.28259633   579"}}, "geometry": {"type": "Point", "coordinates": [54.031121091918315, 5.21923015813879]}}, {"type": "Feature", "properties": {"norad_id": 66456, "name": "STARLINK-35643", "group": "last-30-days", "lat": 29.375501734595332, "lon": 122.70310961801717, "alt_km": 439.5734801973331, "timestamp": "2025-12-10T07:43:53.548165+00:00", "meta": {"OBJECT_NAME": "STARLINK-35643", "OBJECT_ID": "2025-262A", "EPOCH": "2025-12-09T20:00:01.999008", "MEAN_MOTION": 15.40628736, "ECCENTRICITY": 0.0001558, "INCLINATION": 43.0001, "RA_OF_ASC_NODE": 88.3584, "ARG_OF_PERICENTER": 294.5215, "MEAN_ANOMALY": 277.2466, "EPHEMERIS_TYPE": 0, "CLASSIFICATION_TYPE": "U", "NORAD_CAT_ID": 66456, "ELEMENT_SET_NO": 999, "REV_AT_EPOCH": 517, "BSTAR": 0.0028277, "MEAN_MOTION_DOT": 0.00119401, "MEAN_MOTION_DDOT": 0}, "tle": {"line1": "1 66456U 25262A   25343.83335647  .00119401  00000+0  28277-2 0  9993", "line2": "2 66456  43.0001  88.3584 0001558 294.5215 277.2466 15.40628736  5179"}}, "geometry": {"type": "Point", "coordinates": [122.70310961801717, 29.375501734595332]}}, {"type": "Feature", "properties": {"norad_id": 66457, "name": "STARLINK-35466", "group": "last-30-days", "lat": 40.10275364256548, "lon": 150.1343399661818, "alt_km": 438.27540495469657, "timestamp": "2025-12-10T07:43:53.548200+00:00", "meta": {"OBJECT_NAME": "STARLINK-35466", "OBJECT_ID": "2025-262B", "EPOCH": "2025-12-09T20:00:01.999008", "MEAN_MOTION": 15.40703121, "ECCENTRICITY": 0.0001102, "INCLINATION": 43.0001, "RA_OF_ASC_NODE": 88.297, "ARG_OF_PERICENTER": 294.2044, "MEAN_ANOMALY": 302.4134, "EPHEMERIS_TYPE": 0, "CLASSIFICATION_TYPE": "U", "NORAD_CAT_ID": 66457, "ELEMENT_SET_NO": 999, "REV_AT_EPOCH": 517, "BSTAR": -0.00084805, "MEAN_MOTION_DOT": -0.00035566, "MEAN_MOTION_DDOT": 0}, "tle": {"line1": "1 66457U 25262B   25343.83335647 -.00035566  00000+0 -84805-3 0  9995", "line2": "2 66457  43.0001  88.2970 0001102 294.2044 302.4134 15.40703121  5175"}}, "geometry": {"type": "Point", "coordinates": [150.1343399661818, 40.10275364256548]}}, {"type": "Feature", "properties": {"norad_id": 66458, "name": "STARLINK-35684", "group": "last-30-days", "lat": 35.51382937518007, "lon": 135.49165149288123, "alt_km": 439.1578140398451, "timestamp": "2025-12-10T07:43:53.548211+00:00", "meta": {"OBJECT_NAME": "STARLINK-35684", "OBJECT_ID": "2025-262C", "EPOCH": "2025-12-09T20:00:01.999008", "MEAN_MOTION": 15.4075049, "ECCENTRICITY": 0.0001272, "INCLINATION": 43.0001, "RA_OF_ASC_NODE": 88.3269, "ARG_OF_PERICENTER": 277.1743, "MEAN_ANOMALY": 306.9761, "EPHEMERIS_TYPE": 0, "CLASSIFICATION_TYPE": "U", "NORAD_CAT_ID": 66458, "ELEMENT_SET_NO": 999, "REV_AT_EPOCH": 517, "BSTAR": -0.0022154, "MEAN_MOTION_DOT": -0.00091895, "MEAN_MOTION_DDOT": 0}, "tle": {"line1": "1 66458U 25262C   25343.83335647 -.00091895  00000+0 -22154-2 0  9991", "line2": "2 66458  43.0001  88.3269 0001272 277.1743 306.9761 15.40750490  5178"}}, "geometry": {"type": "Point", "coordinates": [135.49165149288123, 35.51382937518007]}}, {"type": "Feature", "properties": {"norad_id": 66459, "name": "STARLINK-35449", "group": "last-30-days", "lat": 42.62002507953681, "lon": 166.36821704660187, "alt_km": 438.1460354534356, "timestamp": "2025-12-10T07:43:53.548221+00:00", "meta": {"OBJECT_NAME": "STARLINK-35449", "OBJECT_ID": "2025-262D", "EPOCH": "2025-12-09T20:00:01.999008", "MEAN_MOTION": 15.40688732, "ECCENTRICITY": 0.0001288, "INCLINATION": 43.0005, "RA_OF_ASC_NODE": 88.2657, "ARG_OF_PERICENTER": 282.8776, "MEAN_ANOMALY": 326.1735, "EPHEMERIS_TYPE": 0, "CLASSIFICATION_TYPE": "U", "NORAD_CAT_ID": 66459, "ELEMENT_SET_NO": 999, "REV_AT_EPOCH": 517, "BSTAR": -0.00021526, "MEAN_MOTION_DOT": -9.281e-05, "MEAN_MOTION_DDOT": 0}, "tle": {"line1": "1 66459U 25262D   25343.83335647 -.00009281  00000+0 -21526-3 0  9993", "line2": "2 66459  43.0005  88.2657 0001288 282.8776 326.1735 15.40688732  5173"}}, "geometry": {"type": "Point", "coordinates": [166.36821704660187, 42.62002507953681]}}, {"type": "Feature", "properties": {"norad_id": 66460, "name": "STARLINK-35424", "group": "last-30-days", "lat": 42.70834438362149, "lon": -176.69009933018734, "alt_km": 438.39275563445335, "timestamp": "2025-12-10T07:43:53.548231+00:00", "meta": {"OBJECT_NAME": "STARLINK-35424", "OBJECT_ID": "2025-262E", "EPOCH": "2025-12-09T20:00:01.999008", "MEAN_MOTION": 15.40694363, "ECCENTRICITY": 0.0001557, "INCLINATION": 43.0004, "RA_OF_ASC_NODE": 88.2362, "ARG_OF_PERICENTER": 274.6594, "MEAN_ANOMALY": 346.8357, "EPHEMERIS_TYPE": 0, "CLASSIFICATION_TYPE": "U", "NORAD_CAT_ID": 66460, "ELEMENT_SET_NO": 999, "REV_AT_EPOCH": 517, "BSTAR": -0.00041756, "MEAN_MOTION_DOT": -0.00017702, "MEAN_MOTION_DDOT": 0}, "tle": {"line1": "1 66460U 25262E   25343.83335647 -.00017702  00000+0 -41756-3 0  9999", "line2": "2 66460  43.0004  88.2362 0001557 274.6594 346.8357 15.40694363  5179"}}, "geometry": {"type": "Point", "coordinates": [-176.69009933018734, 42.70834438362149]}}, {"type": "Feature", "properties": {"norad_id": 66461, "name": "STARLINK-35132", "group": "last-30-days", "lat": 40.36285517742876, "lon": -160.40839993577026, "alt_km": 439.0425904642725, "timestamp": "2025-12-10T07:43:53.548245+00:00", "meta": {"OBJECT_NAME": "STARLINK-35132", "OBJECT_ID": "2025-262F", "EPOCH": "2025-12-09T20:00:01.999008", "MEAN_MOTION": 15.40620605, "ECCENTRICITY": 0.000217, "INCLINATION": 43.0003, "RA_OF_ASC_NODE": 88.2055, "ARG_OF_PERICENTER": 291.6558, "MEAN_ANOMALY": 342.2674, "EPHEMERIS_TYPE": 0, "CLASSIFICATION_TYPE": "U", "NORAD_CAT_ID": 66461, "ELEMENT_SET_NO": 999, "REV_AT_EPOCH": 517, "BSTAR": 0.0022577, "MEAN_MOTION_DOT": 0.00094939, "MEAN_MOTION_DDOT": 0}, "tle": {"line1": "1 66461U 25262F   25343.83335647  .00094939  00000+0  22577-2 0  9994", "line2": "2 66461  43.0003  88.2055 0002170 291.6558 342.2674 15.40620605  5179"}}, "geometry": {"type": "Point", "coordinates": [-160.40839993577026, 40.36285517742876]}}, {"type": "Feature", "properties": {"norad_id": 66462, "name": "STARLINK-35499", "group": "last-30-days", "lat": 35.91182026645701, "lon": -145.64174994870044, "alt_km": 440.2458577074176, "timestamp": "2025-12-10T07:43:53.548255+00:00", "meta": {"OBJECT_NAME": "STARLINK-35499", "OBJECT_ID": "2025-262G", "EPOCH": "2025-12-09T20:00:01.999008", "MEAN_MOTION": 15.41388168, "ECCENTRICITY": 0.0001251, "INCLINATION": 43.0004, "RA_OF_ASC_NODE": 88.176, "ARG_OF_PERICENTER": 272.5768, "MEAN_ANOMALY": 13.4236, "EPHEMERIS_TYPE": 0, "CLASSIFICATION_TYPE": "U", "NORAD_CAT_ID": 66462, "ELEMENT_SET_NO": 999, "REV_AT_EPOCH": 517, "BSTAR": -0.025204, "MEAN_MOTION_DOT": -0.00982721, "MEAN_MOTION_DDOT": 0}, "tle": {"line1": "1 66462U 25262G   25343.83335647 -.00982721  00000+0 -25204-1 0  9991", "line2": "2 66462  43.0004  88.1760 0001251 272.5768  13.4236 15.41388168  5170"}}, "geometry": {"type": "Point", "coordinates": [-145.64174994870044, 35.91182026645701]}}, {"type": "Feature", "properties": {"norad_id": 66463, "name": "STARLINK-35463", "group": "last-30-days", "lat": 23.170593078037367, "lon": -122.04148329499266, "alt_km": 436.6357726183087, "timestamp": "2025-12-10T07:43:53.548265+00:00", "meta": {"OBJECT_NAME": "STARLINK-35463", "OBJECT_ID": "2025-262H", "EPOCH": "2025-12-09T20:00:01.999008", "MEAN_MOTION": 15.4437963, "ECCENTRICITY": 0.0001239, "INCLINATION": 43.0004, "RA_OF_ASC_NODE": 88.1279, "ARG_OF_PERICENTER": 273.2705, "MEAN_ANOMALY": 32.532, "EPHEMERIS_TYPE": 0, "CLASSIFICATION_TYPE": "U", "NORAD_CAT_ID": 66463, "ELEMENT_SET_NO": 999, "REV_AT_EPOCH": 517, "BSTAR": -0.048149, "MEAN_MOTION_DOT": -0.0202606, "MEAN_MOTION_DDOT": 0}, "tle": {"line1": "1 66463U 25262H   25343.83335647 -.02026060  00000+0 -48149-1 0  9992", "line2": "2 66463  43.0004  88.1279 0001239 273.2705  32.5320 15.44379630  5174"}}, "geometry": {"type": "Point", "coordinates": [-122.04148329499266, 23.170593078037367]}}, {"type": "Feature", "properties": {"norad_id": 66464, "name": "STARLINK-35435", "group": "last-30-days", "lat": 29.802516342339985, "lon": -132.5989588038583, "alt_km": 439.6751736023489, "timestamp": "2025-12-10T07:43:53.548275+00:00", "meta": {"OBJECT_NAME": "STARLINK-35435", "OBJECT_ID": "2025-262J", "EPOCH": "2025-12-09T20:00:01.999008", "MEAN_MOTION": 15.43041911, "ECCENTRICITY": 0.0001377, "INCLINATION": 42.9999, "RA_OF_ASC_NODE": 88.1504, "ARG_OF_PERICENTER": 278.3728, "MEAN_ANOMALY": 18.2069, "EPHEMERIS_TYPE": 0, "CLASSIFICATION_TYPE": "U", "NORAD_CAT_ID": 66464, "ELEMENT_SET_NO": 999, "REV_AT_EPOCH": 517, "BSTAR": -0.049407, "MEAN_MOTION_DOT": -0.01990405, "MEAN_MOTION_DDOT": 0}, "tle": {"line1": "1 66464U 25262J   25343.83335647 -.01990405  00000+0 -49407-1 0  9993", "line2": "2 66464  42.9999  88.1504 0001377 278.3728  18.2069 15.43041911  5179"}}, "geometry": {"type": "Point", "coordinates": [-132.5989588038583, 29.802516342339985]}}]}